DTUSAT                  
1 27842U 03031C   08259.91344591  .00000019  00000-0  28906-4 0  3779
2 27842  98.7123 267.9253 0008862 191.2910 168.8081 14.20945799270399
CUTE-1 (CO-55)          
1 27844U 03031E   08260.57700588  .00000020  00000-0  29576-4 0  3964
2 27844  98.7181 267.5843 0009161 208.9877 151.0797 14.20596148270418
QUAKESAT                
1 27845U 03031F   08260.52524410  .00000047  00000-0  42642-4 0  3764
2 27845  98.7239 266.9121 0008275 227.7245 132.3232 14.20217250270328
AAU CUBESAT             
1 27846U 03031G   08260.47647348  .00000019  00000-0  28983-4 0  3171
2 27846  98.7128 268.4756 0009089 189.1621 170.9404 14.20946900270476
CANX-1                  
1 27847U 03031H   08260.48191998  .00000017  00000-0  27894-4 0  3312
2 27847  98.7132 268.4763 0009027 189.2852 170.8181 14.20932204270427
CUBESAT XI-IV (CO-57)   
1 27848U 03031J   08260.58740604  .00000022  00000-0  30493-4 0  3470
2 27848  98.7189 266.6750 0009091 214.1519 145.9078 14.20404329270380
UWE-1                   
1 28892U 05043C   08257.99387692 -.00000042  00000-0  86982-6 0  1433
2 28892  98.0824 149.4552 0018330 129.3872 230.8990 14.59658296153554
CUBESAT XI-V (CO-58)    
1 28895U 05043F   08260.70142639  .00000163  00000-0  43748-4 0  1219
2 28895  98.0853 152.4938 0018999 121.6669 238.6400 14.59696701153837
NCUBE-2                 
1 28897U 05043H   08261.13497747  .00000066  00000-0  23282-4 0  6524
2 28897  98.0836 152.8415 0018019 120.7854 239.5130 14.59868830146187
CUTE-1.7+APD (CO-56)    
1 28941U 06005C   08261.11557879  .00032347  27003-5  21545-3 0  3838
2 28941  98.1179  24.7270 0152900  66.3288 295.3747 15.61321053144365
GENESAT-1               
1 29655U 06058C   08260.93338227  .00006186  00000-0  77925-4 0  5125
2 29655  40.0258  88.0156 0003958  36.3502 323.7584 15.59902851 99713
CSTB1                   
1 31122U 07012F   08261.16645728  .00000552  00000-0  13192-3 0  4384
2 31122  98.0353 323.3108 0086288  43.7946 317.0044 14.55158746 75450
MAST                    
1 31126U 07012K   08261.14710518  .00000050  00000-0  21920-4 0  4209
2 31126  98.0316 321.8652 0095552  47.4340 313.4919 14.53444988 75379
LIBERTAD-1              
1 31128U 07012M   08260.64501595 -.00000046  00000-0  00000+0 0  4339
2 31128  98.0312 320.1764 0103886  52.5256 308.5335 14.51974523 75206
POLYSAT CP3             
1 31129U 07012N   08261.09602379  .00000044  00000-0  20785-4 0  2996
2 31129  98.0320 320.6669 0103596  51.0434 309.9946 14.52063908 75250
CAPE1                   
1 31130U 07012P   08260.43204553  .00000175  00000-0  50987-4 0  4058
2 31130  98.0335 319.9833 0103779  53.3250 307.7430 14.51991310 74963
POLYSAT CP4             
1 31132U 07012Q   08261.16557110  .00000417  00000-0  10225-3 0  4140
2 31132  98.0352 323.2847 0086360  43.7719 317.0282 14.55143378 75323
NTS (CANX-6)            
1 32784U 08021B   08260.21125203  .00000251  00000-0  39284-4 0  1571
2 32784  97.9868 319.8080 0015561 190.9787 169.1087 14.80967775 20874
CUTE-1.7+APD II         
1 32785U 08021C   08260.44123313  .00000111  00000-0  21042-4 0  1597
2 32785  97.9855 320.0984 0014408 196.0722 164.0033 14.81392073 20917
COMPASS-1               
1 32787U 08021E   08261.17878230  .00000110  00000-0  20849-4 0  1497
2 32787  97.9817 320.7685 0015515 195.0252 165.0502 14.81459968 21021
AAUSAT-II               
1 32788U 08021F   08261.16833290  .00000221  00000-0  34908-4 0  1500
2 32788  97.9807 320.7760 0015116 195.2135 164.8625 14.81571825 21024
DELFI-C3                
1 32789U 08021G   08260.23399854  .00000300  00000-0  45125-4 0  1580
2 32789  97.9838 319.8785 0015435 197.4841 162.5840 14.81471690 20883
CANX-2                  
1 32790U 08021H   08261.18460925 -.00000052  00000-0  22791-6 0  1452
2 32790  97.9855 320.8329 0015042 193.3783 166.7032 14.81381172 21003
SEEDS II                
1 32791U 08021J   08260.71952068 -.00000062  00000-0 -96575-6 0  1458
2 32791  97.9832 320.3299 0015656 194.5758 165.4999 14.81312966 20929
PSLV DEB                
1 32797U 08021L   08259.11819499  .00001613  00000-0  20936-3 0   765
2 32797  97.9886 318.9194 0016663 202.4292 157.6051 14.82055141 19405
